[{"OBJECT_NAME":"STARLINK-1893","OBJECT_ID":"2020-074AZ","EPOCH":"2026-03-10T00:00:02.999808","MEAN_MOTION":15.48803791,"ECCENTRICITY":0.00021326,"INCLINATION":53.0504,"RA_OF_ASC_NODE":262.7095,"ARG_OF_PERICENTER":48.1407,"MEAN_ANOMALY":339.7407,"EPHEMERIS_TYPE":0,"CLASSIFICATION_TYPE":"U","NORAD_CAT_ID":46786,"ELEMENT_SET_NO":999,"REV_AT_EPOCH":590,"BSTAR":0.0029021764,"MEAN_MOTION_DOT":0.00161462,"MEAN_MOTION_DDOT":0},{"OBJECT_NAME":"ZK-1A R\/B","OBJECT_ID":"2025-108G","EPOCH":"2026-03-09T22:10:12.431136","MEAN_MOTION":15.50420851,"ECCENTRICITY":0.00781774,"INCLINATION":97.4327,"RA_OF_ASC_NODE":155.8294,"ARG_OF_PERICENTER":43.1375,"MEAN_ANOMALY":317.5966,"EPHEMERIS_TYPE":0,"CLASSIFICATION_TYPE":"U","NORAD_CAT_ID":64093,"ELEMENT_SET_NO":999,"REV_AT_EPOCH":4506,"BSTAR":0.00053431437,"MEAN_MOTION_DOT":0.00034492,"MEAN_MOTION_DDOT":0}]
